STARLINK-30410          
1 57841U 23141B   26068.87208601  .00000703  00000+0  35869-4 0  9994
2 57841  53.1598 283.2442 0001393 103.3134 256.8022 15.30191856140351
HAWK-11B                
1 62379U 24247C   26068.44730104  .00009093  00000+0  32842-3 0  9993
2 62379  45.0161 115.7610 0004690 333.0326  27.0314 15.28847070 67738
